ELEKTRO-L 3             
1 44903U 19095A   26158.50327211 -.00000082  00000+0  00000+0 0  9996
2 44903   0.2315  81.1668 0001470 350.2062  81.6612  1.00272682 23617
GONETS-M 14             
1 44905U 19096A   26158.46889007  .00000090  00000+0  58144-3 0  9994
2 44905  82.5233  90.6651 0013058 169.0364 191.1003 12.42869694292470
GONETS-M 15             
1 44906U 19096B   26158.49830005  .00000096  00000+0  62401-3 0  9999
2 44906  82.5252  91.1069 0014474 193.1635 166.9068 12.42871249292440
GONETS-M 16             
1 44907U 19096C   26158.52468135  .00000076  00000+0  47432-3 0  9990
2 44907  82.5198  90.0475 0009620 237.9640 122.0506 12.42891595292434
RS-44 & BREEZE-KM R/B   
1 44909U 19096E   26157.99794810  .00000012  00000+0  79316-6 0  9993
2 44909  82.5218 346.4772 0217716 167.9357 192.7080 12.79748571301045
JILIN-1 KUANFU 01       
1 45016U 20003A   26158.48256225  .00003871  00000+0  23751-3 0  9996
2 45016  97.5026 232.6277 0009101 344.7499  15.3455 15.10672339353862
XINGYUN-2 01            
1 45602U 20028A   26158.54464439  .00000795  00000+0  50347-4 0  9993
2 45602  97.4868 151.1371 0007488 231.0377 129.0186 15.11763534333383
XINGYUN-2 02            
1 45603U 20028B   26158.52156196  .00001449  00000+0  89295-4 0  9991
2 45603  97.5075 164.6833 0009541 312.5582  47.4842 15.11498669333377
HAIYANG-1D              
1 45721U 20036A   26158.48482096  .00000112  00000+0  55504-4 0  9999
2 45721  98.4555 100.3760 0002812 150.5809 209.5534 14.34169868313583
M2 PATHFINDER           
1 45727U 20037E   26158.27108242  .00003212  00000+0  23287-3 0  9997
2 45727  97.8159 349.3911 0011542 180.0595 180.0631 15.04633820324007
GAOFEN DUOMO (GFDM)     
1 45856U 20042A   26158.51891807  .00000623  00000+0  95586-4 0  9994
2 45856  97.7745 218.7565 0012382 101.9145 258.3455 14.76866359319583
ZIYUAN 3-03 (ZY 3-03)   
1 45939U 20051A   26158.51624094  .00005136  00000+0  23150-3 0  9999
2 45939  97.2835 226.5541 0004231   0.4066 359.7173 15.21458154325873
NEMO-HD                 
1 46277U 20061F   26158.47628176  .00011033  00000+0  24063-3 0  9993
2 46277  97.1920 220.5285 0002633  91.2314 268.9237 15.44397802320481
NAPA-1                  
1 46320U 20061BA  26158.52221414  .00065342  00000+0  61957-3 0  9997
2 46320  97.2465 232.3937 0001210 158.5786 201.5526 15.66723421320220
JILIN-1 GAOFEN 3E       
1 46457U 20065D   26158.42696520  .00063125  00000+0  70523-3 0  9991
2 46457  97.2255 210.8184 0012193 187.9481 172.1587 15.62476972318233
JILIN-1 GAOFEN 3F       
1 46458U 20065E   26158.43542748  .00053978  00000+0  66539-3 0  9992
2 46458  97.2212 208.2080 0013786 177.5638 182.5689 15.59921872318183
JILIN-1 GAOFEN 3G       
1 46459U 20065F   26158.46203884  .00089826  00000+0  75642-3 0  9997
2 46459  97.2283 214.8820 0010306  95.7238 264.5200 15.69497082318417
JILIN-1 GAOFEN 3H       
1 46460U 20065G   26158.41331907  .00072724  00000+0  69787-3 0  9994
2 46460  97.2222 211.2165 0005204  40.5083 319.6564 15.66382746318357
HAIYANG-2C              
1 46469U 20066A   26158.55058534 -.00000095  00000+0 -12294-4 0  9997
2 46469  65.9970 239.2769 0009272 238.4362 121.5801 13.83374057288167
HJ-2A                   
1 46478U 20067A   26158.47441882  .00000949  00000+0  14311-3 0  9998
2 46478  97.8823 237.0765 0002334 319.6895  40.4141 14.76601611306827
HJ-2B                   
1 46479U 20067B   26158.51147961  .00000716  00000+0  10980-3 0  9995
2 46479  97.8887 238.1261 0001156  89.3895 270.7447 14.76545926306837
GONETS-M 17             
1 46486U 20068A   26158.54968179  .00000054  00000+0  31955-3 0  9999
2 46486  82.4992 353.4993 0023379  57.5604 302.7732 12.42872904257963
GONETS-M 18             
1 46487U 20068B   26158.51333934  .00000076  00000+0  47397-3 0  9993
2 46487  82.4945 352.6435 0020665  54.2917 306.0081 12.42873058257943
GONETS-M 19             
1 46488U 20068C   26158.56939213  .00000037  00000+0  19540-3 0  9997
2 46488  82.4970 353.0572 0014469  68.9049 291.3576 12.42891971258054
DEKART                  
1 46493U 20068H   26158.50791081  .00012928  00000+0  35766-3 0  9996
2 46493  97.8746 167.0864 0007592 329.0569  31.0225 15.37129568314286
NORBI                   
1 46494U 20068J   26158.52706625  .00021911  00000+0  41978-3 0  9993
2 46494  97.8635 173.6433 0004552 295.1263  64.9513 15.48046956314710
SALSAT                  
1 46495U 20068K   26157.74488443  .00010129  00000+0  35498-3 0  9991
2 46495  97.8851 160.1753 0009049 349.8452  10.2602 15.29647918313761
