OBJECT_NAME,OBJECT_ID,EPOCH,MEAN_MOTION,ECCENTRICITY,INCLINATION,RA_OF_ASC_NODE,ARG_OF_PERICENTER,MEAN_ANOMALY,EPHEMERIS_TYPE,CLASSIFICATION_TYPE,NORAD_CAT_ID,ELEMENT_SET_NO,REV_AT_EPOCH,BSTAR,MEAN_MOTION_DOT,MEAN_MOTION_DDOT
ELEKTRO-L 3,2019-095A,2026-06-07T12:04:42.710304,1.00272682,.000147,0.2315,81.1668,350.2062,81.6612,0,U,44903,999,2361,0,-.82E-6,0
GONETS-M 14,2019-096A,2026-06-07T11:15:12.102048,12.42869694,.0013058,82.5233,90.6651,169.0364,191.1003,0,U,44905,999,29247,.58144E-3,.9E-6,0
GONETS-M 15,2019-096B,2026-06-07T11:57:33.124320,12.42871249,.0014474,82.5252,91.1069,193.1635,166.9068,0,U,44906,999,29244,.62401E-3,.96E-6,0
GONETS-M 16,2019-096C,2026-06-07T12:35:32.468640,12.42891595,.000962,82.5198,90.0475,237.9640,122.0506,0,U,44907,999,29243,.47432E-3,.76E-6,0
RS-44 & BREEZE-KM R/B,2019-096E,2026-06-06T23:57:02.715840,12.79748571,.0217716,82.5218,346.4772,167.9357,192.7080,0,U,44909,999,30104,.79316E-6,.12E-6,0
JILIN-1 KUANFU 01,2020-003A,2026-06-07T11:34:53.378400,15.10672339,.0009101,97.5026,232.6277,344.7499,15.3455,0,U,45016,999,35386,.23751E-3,.3871E-4,0
XINGYUN-2 01,2020-028A,2026-06-07T13:04:17.275296,15.11763534,.0007488,97.4868,151.1371,231.0377,129.0186,0,U,45602,999,33338,.50347E-4,.795E-5,0
XINGYUN-2 02,2020-028B,2026-06-07T12:31:02.953344,15.11498669,.0009541,97.5075,164.6833,312.5582,47.4842,0,U,45603,999,33337,.89295E-4,.1449E-4,0
HAIYANG-1D,2020-036A,2026-06-07T11:38:08.530944,14.34169868,.0002812,98.4555,100.3760,150.5809,209.5534,0,U,45721,999,31358,.55504E-4,.112E-5,0
M2 PATHFINDER,2020-037E,2026-06-07T06:30:21.521088,15.04633820,.0011542,97.8159,349.3911,180.0595,180.0631,0,U,45727,999,32400,.23287E-3,.3212E-4,0
GAOFEN DUOMO (GFDM),2020-042A,2026-06-07T12:27:14.521248,14.76866359,.0012382,97.7745,218.7565,101.9145,258.3455,0,U,45856,999,31958,.95586E-4,.623E-5,0
ZIYUAN 3-03 (ZY 3-03),2020-051A,2026-06-07T12:23:23.217216,15.21458154,.0004231,97.2835,226.5541,0.4066,359.7173,0,U,45939,999,32587,.2315E-3,.5136E-4,0
NEMO-HD,2020-061F,2026-06-07T11:25:50.744064,15.44397802,.0002633,97.1920,220.5285,91.2314,268.9237,0,U,46277,999,32048,.24063E-3,.11033E-3,0
NAPA-1,2020-061BA,2026-06-07T12:31:59.301696,15.66723421,.000121,97.2465,232.3937,158.5786,201.5526,0,U,46320,999,32022,.61957E-3,.65342E-3,0
JILIN-1 GAOFEN 3E,2020-065D,2026-06-07T10:14:49.793280,15.62476972,.0012193,97.2255,210.8184,187.9481,172.1587,0,U,46457,999,31823,.70523E-3,.63125E-3,0
JILIN-1 GAOFEN 3F,2020-065E,2026-06-07T10:27:00.934272,15.59921872,.0013786,97.2212,208.2080,177.5638,182.5689,0,U,46458,999,31818,.66539E-3,.53978E-3,0
JILIN-1 GAOFEN 3G,2020-065F,2026-06-07T11:05:20.155776,15.69497082,.0010306,97.2283,214.8820,95.7238,264.5200,0,U,46459,999,31841,.75642E-3,.89826E-3,0
JILIN-1 GAOFEN 3H,2020-065G,2026-06-07T09:55:10.767648,15.66382746,.0005204,97.2222,211.2165,40.5083,319.6564,0,U,46460,999,31835,.69787E-3,.72724E-3,0
HAIYANG-2C,2020-066A,2026-06-07T13:12:50.573376,13.83374057,.0009272,65.9970,239.2769,238.4362,121.5801,0,U,46469,999,28816,-.12294E-4,-.95E-6,0
HJ-2A,2020-067A,2026-06-07T11:23:09.786048,14.76601611,.0002334,97.8823,237.0765,319.6895,40.4141,0,U,46478,999,30682,.14311E-3,.949E-5,0
HJ-2B,2020-067B,2026-06-07T12:16:31.838304,14.76545926,.0001156,97.8887,238.1261,89.3895,270.7447,0,U,46479,999,30683,.1098E-3,.716E-5,0
GONETS-M 17,2020-068A,2026-06-07T13:11:32.506656,12.42872904,.0023379,82.4992,353.4993,57.5604,302.7732,0,U,46486,999,25796,.31955E-3,.54E-6,0
GONETS-M 18,2020-068B,2026-06-07T12:19:12.518976,12.42873058,.0020665,82.4945,352.6435,54.2917,306.0081,0,U,46487,999,25794,.47397E-3,.76E-6,0
GONETS-M 19,2020-068C,2026-06-07T13:39:55.480032,12.42891971,.0014469,82.4970,353.0572,68.9049,291.3576,0,U,46488,999,25805,.1954E-3,.37E-6,0
DEKART,2020-068H,2026-06-07T12:11:23.493984,15.37129568,.0007592,97.8746,167.0864,329.0569,31.0225,0,U,46493,999,31428,.35766E-3,.12928E-3,0
NORBI,2020-068J,2026-06-07T12:38:58.524000,15.48046956,.0004552,97.8635,173.6433,295.1263,64.9513,0,U,46494,999,31471,.41978E-3,.21911E-3,0
SALSAT,2020-068K,2026-06-06T17:52:38.014752,15.29647918,.00090499,97.8851,160.1753,349.8452,10.2602,0,U,46495,999,31376,.35497906E-3,.10129E-3,0
